[{"OBJECT_NAME":"RISAT-2BR1","OBJECT_ID":"2019-089F","EPOCH":"2026-03-09T22:23:56.080608","MEAN_MOTION":15.01632497,"ECCENTRICITY":0.00130957,"INCLINATION":36.9618,"RA_OF_ASC_NODE":340.419,"ARG_OF_PERICENTER":88.0635,"MEAN_ANOMALY":272.1607,"EPHEMERIS_TYPE":0,"CLASSIFICATION_TYPE":"U","NORAD_CAT_ID":44857,"ELEMENT_SET_NO":999,"REV_AT_EPOCH":34227,"BSTAR":0.00042406412,"MEAN_MOTION_DOT":5.543e-5,"MEAN_MOTION_DDOT":0},{"OBJECT_NAME":"STARLINK-33971","OBJECT_ID":"2025-098G","EPOCH":"2026-03-09T22:08:26.340576","MEAN_MOTION":14.98335408,"ECCENTRICITY":0.00024416,"INCLINATION":70.0005,"RA_OF_ASC_NODE":274.0181,"ARG_OF_PERICENTER":271.6766,"MEAN_ANOMALY":88.4113,"EPHEMERIS_TYPE":0,"CLASSIFICATION_TYPE":"U","NORAD_CAT_ID":63932,"ELEMENT_SET_NO":999,"REV_AT_EPOCH":4660,"BSTAR":0.0002487749,"MEAN_MOTION_DOT":2.877e-5,"MEAN_MOTION_DDOT":0}]
